<?xml version="1.0" encoding="UTF-8"?>
<gpx xmlns="http://www.topografix.com/GPX/1/1" xmlns:xsi="http://www.w3.org/2001/XMLSchema-instance" xsi:schemaLocation="http://www.topografix.com/GPX/1/1 http://www.topografix.com/GPX/1/1/gpx.xsd" version="1.1" creator="gpx.py -- https://github.com/tkrajina/gpxpy">
  <trk>
    <trkseg>
      <trkpt lat="48.565" lon="-4.596">
      </trkpt>
      <trkpt lat="48.5650350087002" lon="-4.595881737463553">
      </trkpt>
      <trkpt lat="48.56506994613396" lon="-4.5957634390302236">
      </trkpt>
      <trkpt lat="48.565104741667426" lon="-4.595645069121754">
      </trkpt>
      <trkpt lat="48.56513932592623" lon="-4.595526592794303">
      </trkpt>
      <trkpt lat="48.56517363141133" lon="-4.595407976048613">
      </trkpt>
      <trkpt lat="48.56520759309806" lon="-4.59528918613179">
      </trkpt>
      <trkpt lat="48.56524114901335" lon="-4.595170191828016">
      </trkpt>
      <trkpt lat="48.56527424078581" lon="-4.595050963735629">
      </trkpt>
      <trkpt lat="48.56530681416377" lon="-4.594931474528089">
      </trkpt>
      <trkpt lat="48.5653388194969" lon="-4.594811699196533">
      </trkpt>
      <trkpt lat="48.565370212176866" lon="-4.594691615271756">
      </trkpt>
      <trkpt lat="48.565400953033276" lon="-4.594571203023649">
      </trkpt>
      <trkpt lat="48.56543100868138" lon="-4.594450445636322">
      </trkpt>
      <trkpt lat="48.565460351818395" lon="-4.594329329357366">
      </trkpt>
      <trkpt lat="48.56548896146582" lon="-4.5942078436199205">
      </trkpt>
      <trkpt lat="48.56551682315567" lon="-4.5940859811364625">
      </trkpt>
      <trkpt lat="48.56554392905887" lon="-4.593963737963496">
      </trkpt>
      <trkpt lat="48.565570278054786" lon="-4.59384111353655">
      </trkpt>
      <trkpt lat="48.56559587574112" lon="-4.593718110675192">
      </trkpt>
      <trkpt lat="48.565620734384275" lon="-4.593594735557998">
      </trkpt>
      <trkpt lat="48.56564487281043" lon="-4.593470997667716">
      </trkpt>
      <trkpt lat="48.56566831623848" lon="-4.593346909707093">
      </trkpt>
      <trkpt lat="48.56569109605616" lon="-4.593222487486123">
      </trkpt>
      <trkpt lat="48.565713249541474" lon="-4.593097749781721">
      </trkpt>
      <trkpt lat="48.56573481953177" lon="-4.592972718171054">
      </trkpt>
      <trkpt lat="48.565755854043566" lon="-4.592847416840022">
      </trkpt>
      <trkpt lat="48.56577640584631" lon="-4.592721872368583">
      </trkpt>
      <trkpt lat="48.56579653199401" lon="-4.592596113494824">
      </trkpt>
      <trkpt lat="48.56581629331882" lon="-4.592470170859884">
      </trkpt>
      <trkpt lat="48.5658357538911" lon="-4.592344076735981">
      </trkpt>
      <trkpt lat="48.56585498045069" lon="-4.592217864739955">
      </trkpt>
      <trkpt lat="48.56587404181455" lon="-4.592091569534892">
      </trkpt>
      <trkpt lat="48.565893008265945" lon="-4.591965226522445">
      </trkpt>
      <trkpt lat="48.56591195093057" lon="-4.591838871528609">
      </trkpt>
      <trkpt lat="48.56593094114526" lon="-4.5917125404857275">
      </trkpt>
      <trkpt lat="48.56595004982479" lon="-4.591586269113551">
      </trkpt>
      <trkpt lat="48.56596934683244" lon="-4.591460092602192">
      </trkpt>
      <trkpt lat="48.56598890035987" lon="-4.591334045299771">
      </trkpt>
      <trkpt lat="48.566008776321844" lon="-4.591208160407538">
      </trkpt>
      <trkpt lat="48.566029037771195" lon="-4.5910824696851815">
      </trkpt>
      <trkpt lat="48.56604974433913" lon="-4.590957003168923">
      </trkpt>
      <trkpt lat="48.56607095170595" lon="-4.590831788904918">
      </trkpt>
      <trkpt lat="48.56609271110684" lon="-4.590706852700307">
      </trkpt>
      <trkpt lat="48.566115068877075" lon="-4.590582217894162">
      </trkpt>
      <trkpt lat="48.56613806604077" lon="-4.590457905150315">
      </trkpt>
      <trkpt lat="48.56616173794675" lon="-4.590333932273957">
      </trkpt>
      <trkpt lat="48.56618611395476" lon="-4.590210314053585">
      </trkpt>
      <trkpt lat="48.566211217174896" lon="-4.590087062129747">
      </trkpt>
      <trkpt lat="48.56623706426247" lon="-4.589964184891717">
      </trkpt>
      <trkpt lat="48.566263665270164" lon="-4.589841687403032">
      </trkpt>
      <trkpt lat="48.566291023558826" lon="-4.589719571356545">
      </trkpt>
      <trkpt lat="48.56631913576761" lon="-4.5895978350594016">
      </trkpt>
      <trkpt lat="48.56634799184383" lon="-4.589476473448066">
      </trkpt>
      <trkpt lat="48.56637757513217" lon="-4.589355478133266">
      </trkpt>
      <trkpt lat="48.566407862522546" lon="-4.589234837474452">
      </trkpt>
      <trkpt lat="48.5664388246552" lon="-4.589114536683124">
      </trkpt>
      <trkpt lat="48.566470426181326" lon="-4.588994557954098">
      </trkpt>
      <trkpt lat="48.5665026260768" lon="-4.588874880623535">
      </trkpt>
      <trkpt lat="48.56653537800633" lon="-4.5887554813523685">
      </trkpt>
      <trkpt lat="48.56656863073475" lon="-4.588636334333453">
      </trkpt>
      <trkpt lat="48.56660232858175" lon="-4.588517411520637">
      </trkpt>
      <trkpt lat="48.56663641191613" lon="-4.588398682877696">
      </trkpt>
      <trkpt lat="48.56667081768506" lon="-4.588280116644945">
      </trkpt>
      <trkpt lat="48.56670547997376" lon="-4.588161679621131">
      </trkpt>
      <trkpt lat="48.566740330590584" lon="-4.588043337458135">
      </trkpt>
      <trkpt lat="48.56677529967225" lon="-4.587925054965844">
      </trkpt>
      <trkpt lat="48.566810316303986" lon="-4.587806796424507">
      </trkpt>
      <trkpt lat="48.566845309148945" lon="-4.587688525901782">
      </trkpt>
      <trkpt lat="48.56688020708143" lon="-4.587570207571671">
      </trkpt>
      <trkpt lat="48.5669149398182" lon="-4.587451806032524">
      </trkpt>
      <trkpt lat="48.56694943854228" lon="-4.587333286621255">
      </trkpt>
      <trkpt lat="48.56698363651382" lon="-4.587214615721021">
      </trkpt>
      <trkpt lat="48.567017469662474" lon="-4.587095761059607">
      </trkpt>
      <trkpt lat="48.56705087715609" lon="-4.586976691995874">
      </trkpt>
      <trkpt lat="48.56708380194065" lon="-4.586857379791733">
      </trkpt>
      <trkpt lat="48.567116191246704" lon="-4.586737797867228">
      </trkpt>
      <trkpt lat="48.56714799705775" lon="-4.5866179220364565">
      </trkpt>
      <trkpt lat="48.56717917653642" lon="-4.586497730722254">
      </trkpt>
      <trkpt lat="48.567209692404724" lon="-4.586377205147704">
      </trkpt>
      <trkpt lat="48.56723951327493" lon="-4.586256329502813">
      </trkpt>
      <trkpt lat="48.56726861392813" lon="-4.5861350910848335">
      </trkpt>
      <trkpt lat="48.56729697553815" lon="-4.586013480411019">
      </trkpt>
      <trkpt lat="48.56732458583859" lon="-4.585891491302792">
      </trkpt>
      <trkpt lat="48.56735143923174" lon="-4.585769120940586">
      </trkpt>
      <trkpt lat="48.56737753683825" lon="-4.585646369888871">
      </trkpt>
      <trkpt lat="48.56740288648718" lon="-4.585523242091144">
      </trkpt>
      <trkpt lat="48.567427502646524" lon="-4.585399744834927">
      </trkpt>
      <trkpt lat="48.567451406294765" lon="-4.5852758886870815">
      </trkpt>
      <trkpt lat="48.567474624734714" lon="-4.585151687400016">
      </trkpt>
      <trkpt lat="48.56749719135111" lon="-4.585027157789619">
      </trkpt>
      <trkpt lat="48.567519145314336" lon="-4.584902319586002">
      </trkpt>
      <trkpt lat="48.56754053123272" lon="-4.584777195258369">
      </trkpt>
      <trkpt lat="48.567561398756624" lon="-4.584651809815584">
      </trkpt>
      <trkpt lat="48.56758180213768" lon="-4.584526190584185">
      </trkpt>
      <trkpt lat="48.56760179974731" lon="-4.584400366965836">
      </trkpt>
      <trkpt lat="48.567621453558566" lon="-4.584274370176352">
      </trkpt>
      <trkpt lat="48.56764082859611" lon="-4.58414823296863">
      </trkpt>
      <trkpt lat="48.567659992359005" lon="-4.584021989341927">
      </trkpt>
      <trkpt lat="48.567679014221596" lon="-4.583895674240083">
      </trkpt>
      <trkpt lat="48.567697964817754" lon="-4.583769323241358">
      </trkpt>
    </trkseg>
  </trk>
</gpx>