<?xml version="1.0" encoding="UTF-8"?>
<gpx xmlns="http://www.topografix.com/GPX/1/1" xmlns:xsi="http://www.w3.org/2001/XMLSchema-instance" xsi:schemaLocation="http://www.topografix.com/GPX/1/1 http://www.topografix.com/GPX/1/1/gpx.xsd" version="1.1" creator="gpx.py -- https://github.com/tkrajina/gpxpy">
  <trk>
    <trkseg>
      <trkpt lat="48.566348982408876" lon="-4.587846215494239">
      </trkpt>
      <trkpt lat="48.56639772745344" lon="-4.587802868193841">
      </trkpt>
      <trkpt lat="48.56644626367184" lon="-4.587759100150727">
      </trkpt>
      <trkpt lat="48.566494393777674" lon="-4.587714513872491">
      </trkpt>
      <trkpt lat="48.566541942926385" lon="-4.587668757082529">
      </trkpt>
      <trkpt lat="48.5665887683772" lon="-4.587621542186903">
      </trkpt>
      <trkpt lat="48.56663476738102" lon="-4.587572662166825">
      </trkpt>
      <trkpt lat="48.5666798828583" lon="-4.587522002018549">
      </trkpt>
      <trkpt lat="48.566724106553366" lon="-4.5874695451084975">
      </trkpt>
      <trkpt lat="48.56676747949053" lon="-4.587415374092434">
      </trkpt>
      <trkpt lat="48.56681008970715" lon="-4.587359666347894">
      </trkpt>
      <trkpt lat="48.5668520673886" lon="-4.587302684172273">
      </trkpt>
      <trkpt lat="48.5668935776743" lon="-4.58724476028823">
      </trkpt>
      <trkpt lat="48.566934811532" lon="-4.587186279457382">
      </trkpt>
      <trkpt lat="48.56697597520492" lon="-4.587127657218316">
      </trkpt>
      <trkpt lat="48.567017278814696" lon="-4.587069316923858">
      </trkpt>
      <trkpt lat="48.56705892475002" lon="-4.587011666346531">
      </trkpt>
      <trkpt lat="48.56710109648265" lon="-4.58695507514498">
      </trkpt>
      <trkpt lat="48.56714394842867" lon="-4.586899854436575">
      </trkpt>
      <trkpt lat="48.56718759741549" lon="-4.586846239605016">
      </trkpt>
      <trkpt lat="48.56723211622589" lon="-4.586794377292995">
      </trkpt>
      <trkpt lat="48.56727752957608" lon="-4.586744317298694">
      </trkpt>
      <trkpt lat="48.567323812749855" lon="-4.586696009823931">
      </trkpt>
      <trkpt lat="48.567370892964426" lon="-4.586649308226014">
      </trkpt>
      <trkpt lat="48.567418653392394" lon="-4.586603977121243">
      </trkpt>
      <trkpt lat="48.56746693961765" lon="-4.586559705392248">
      </trkpt>
      <trkpt lat="48.567515568168474" lon="-4.586516123380384">
      </trkpt>
      <trkpt lat="48.56756433665615" lon="-4.5864728233131276">
      </trkpt>
      <trkpt lat="48.56761303495904" lon="-4.586429381837654">
      </trkpt>
      <trkpt lat="48.567661456833925" lon="-4.586385383415375">
      </trkpt>
      <trkpt lat="48.56770941131306" lon="-4.586340443284674">
      </trkpt>
      <trkpt lat="48.56775673325704" lon="-4.586294228722892">
      </trkpt>
      <trkpt lat="48.56780329248047" lon="-4.586246477432633">
      </trkpt>
      <trkpt lat="48.567849000946" lon="-4.586197012036362">
      </trkpt>
      <trkpt lat="48.5678938176293" lon="-4.586145749878317">
      </trkpt>
      <trkpt lat="48.56793775078608" lon="-4.586092707592073">
      </trkpt>
      <trkpt lat="48.567980857495854" lon="-4.586038000181377">
      </trkpt>
      <trkpt lat="48.568023240507735" lon="-4.5859818346650165">
      </trkpt>
      <trkpt lat="48.568065042562495" lon="-4.58592449863693">
      </trkpt>
      <trkpt lat="48.568106438504685" lon="-4.585866344373723">
      </trkpt>
      <trkpt lat="48.56814762562071" lon="-4.585807769367799">
      </trkpt>
    </trkseg>
  </trk>
</gpx>