<?xml version="1.0" encoding="UTF-8"?>
<gpx xmlns="http://www.topografix.com/GPX/1/1" xmlns:xsi="http://www.w3.org/2001/XMLSchema-instance" xsi:schemaLocation="http://www.topografix.com/GPX/1/1 http://www.topografix.com/GPX/1/1/gpx.xsd" version="1.1" creator="gpx.py -- https://github.com/tkrajina/gpxpy">
  <trk>
    <trkseg>
      <trkpt lat="48.565" lon="-4.596">
      </trkpt>
      <trkpt lat="48.565025066109406" lon="-4.59590117689348">
      </trkpt>
      <trkpt lat="48.56505001848843" lon="-4.595802310822485">
      </trkpt>
      <trkpt lat="48.56507474498331" lon="-4.595703359418164">
      </trkpt>
      <trkpt lat="48.56509913657178" lon="-4.595604281494645">
      </trkpt>
      <trkpt lat="48.565123088874394" lon="-4.595505037620006">
      </trkpt>
      <trkpt lat="48.56514650360154" lon="-4.595405590662916">
      </trkpt>
      <trkpt lat="48.56516928991609" lon="-4.595305906307397">
      </trkpt>
      <trkpt lat="48.56519136569265" lon="-4.595205953528544">
      </trkpt>
      <trkpt lat="48.56521265865606" lon="-4.595105705022628">
      </trkpt>
      <trkpt lat="48.565233107383385" lon="-4.595005137585609">
      </trkpt>
      <trkpt lat="48.565252662155395" lon="-4.594904232434819">
      </trkpt>
      <trkpt lat="48.565271285645835" lon="-4.594802975469342">
      </trkpt>
      <trkpt lat="48.56528895343891" lon="-4.5947013574655005">
      </trkpt>
      <trkpt lat="48.56530565436771" lon="-4.594599374204725">
      </trkpt>
      <trkpt lat="48.56532139066908" lon="-4.594497026532029">
      </trkpt>
      <trkpt lat="48.56533617795254" lon="-4.594394320344306">
      </trkpt>
      <trkpt lat="48.56535004498395" lon="-4.59429126650857">
      </trkpt>
      <trkpt lat="48.565363033286715" lon="-4.594187880711311">
      </trkpt>
      <trkpt lat="48.56537519656611" lon="-4.59408418324103">
      </trkpt>
      <trkpt lat="48.565386599964775" lon="-4.593980198706977">
      </trkpt>
      <trkpt lat="48.56539731915967" lon="-4.593875955697993">
      </trkpt>
      <trkpt lat="48.56540743931291" lon="-4.5937714863861805">
      </trkpt>
      <trkpt lat="48.565417053891174" lon="-4.593666826080893">
      </trkpt>
      <trkpt lat="48.56542626336998" lon="-4.593562012739248">
      </trkpt>
      <trkpt lat="48.56543517384077" lon="-4.5934570864399165">
      </trkpt>
      <trkpt lat="48.56544389554016" lon="-4.593352088827512">
      </trkpt>
      <trkpt lat="48.565452541321726" lon="-4.593247062535267">
      </trkpt>
      <trkpt lat="48.5654612250915" lon="-4.593142050594006">
      </trkpt>
      <trkpt lat="48.565470060228854" lon="-4.593037095835604">
      </trkpt>
      <trkpt lat="48.56547915801478" lon="-4.5929322402992065">
      </trkpt>
      <trkpt lat="48.56548862608913" lon="-4.592827524648433">
      </trkpt>
      <trkpt lat="48.5654985669584" lon="-4.592722987607658">
      </trkpt>
      <trkpt lat="48.565509076574706" lon="-4.592618665425172">
      </trkpt>
      <trkpt lat="48.56552024300558" lon="-4.592514591370663">
      </trkpt>
      <trkpt lat="48.565532145213076" lon="-4.592410795274003">
      </trkpt>
      <trkpt lat="48.565544851959096" lon="-4.592307303111707">
      </trkpt>
      <trkpt lat="48.56555842085217" lon="-4.592204136646826">
      </trkpt>
      <trkpt lat="48.56557289754881" lon="-4.592101313127234">
      </trkpt>
      <trkpt lat="48.56558831512056" lon="-4.591998845046531">
      </trkpt>
      <trkpt lat="48.56560469359554" lon="-4.591896739970832">
      </trkpt>
      <trkpt lat="48.56562203968078" lon="-4.591795000433887">
      </trkpt>
      <trkpt lat="48.565640346669255" lon="-4.591693623901946">
      </trkpt>
      <trkpt lat="48.56565959453283" lon="-4.591592602808894">
      </trkpt>
      <trkpt lat="48.56567975019998" lon="-4.591491924661131">
      </trkpt>
      <trkpt lat="48.56570076801418" lon="-4.5913915722107825">
      </trkpt>
      <trkpt lat="48.56572259036691" lon="-4.5912915236947995">
      </trkpt>
      <trkpt lat="48.565745148496255" lon="-4.5911917531366635">
      </trkpt>
      <trkpt lat="48.56576836344017" lon="-4.591092230706506">
      </trkpt>
      <trkpt lat="48.56579214713112" lon="-4.590992923134636">
      </trkpt>
      <trkpt lat="48.565816403617006" lon="-4.590893794172766">
      </trkpt>
      <trkpt lat="48.5658410303913" lon="-4.59079480509652">
      </trkpt>
      <trkpt lat="48.56586591981416" lon="-4.590695915242278">
      </trkpt>
      <trkpt lat="48.56589096060461" lon="-4.590597082570894">
      </trkpt>
      <trkpt lat="48.56591603938327" lon="-4.5904982642504955">
      </trkpt>
      <trkpt lat="48.5659410422441" lon="-4.590399417250256">
      </trkpt>
      <trkpt lat="48.56596585633353" lon="-4.590300498936943">
      </trkpt>
      <trkpt lat="48.56599037141495" lon="-4.590201467665945">
      </trkpt>
      <trkpt lat="48.566014481396905" lon="-4.590102283358588">
      </trkpt>
      <trkpt lat="48.56603808580389" lon="-4.590002908057757">
      </trkpt>
      <trkpt lat="48.56606109116922" lon="-4.589903306454096">
      </trkpt>
      <trkpt lat="48.56608341233077" lon="-4.589803446375505">
      </trkpt>
      <trkpt lat="48.5661049736116" lon="-4.589703299233142">
      </trkpt>
      <trkpt lat="48.566125709869056" lon="-4.589602840417757">
      </trkpt>
      <trkpt lat="48.56614556739786" lon="-4.589502049640849">
      </trkpt>
      <trkpt lat="48.566164504674624" lon="-4.589400911215928">
      </trkpt>
      <trkpt lat="48.566182492933486" lon="-4.589299414275979">
      </trkpt>
      <trkpt lat="48.5661995165649" lon="-4.589197552924112">
      </trkpt>
      <trkpt lat="48.56621557333205" lon="-4.589095326315309">
      </trkpt>
      <trkpt lat="48.56623067440183" lon="-4.588992738668142">
      </trkpt>
      <trkpt lat="48.566244844190045" lon="-4.588889799206289">
      </trkpt>
      <trkpt lat="48.566258120022944" lon="-4.588786522030663">
      </trkpt>
      <trkpt lat="48.56627055161975" lon="-4.588682925923935">
      </trkpt>
      <trkpt lat="48.566282200403414" lon="-4.588579034090144">
      </trkpt>
      <trkpt lat="48.56629313864909" lon="-4.588474873833019">
      </trkpt>
      <trkpt lat="48.56630344848216" lon="-4.588370476177465">
      </trkpt>
      <trkpt lat="48.56631322073977" lon="-4.58826587543946">
      </trkpt>
      <trkpt lat="48.56632255371152" lon="-4.588161108750335">
      </trkpt>
      <trkpt lat="48.56633155177686" lon="-4.588056215542013">
      </trkpt>
      <trkpt lat="48.566340323958066" lon="-4.587951237000363">
      </trkpt>
      <trkpt lat="48.566348982408876" lon="-4.587846215494239">
      </trkpt>
    </trkseg>
  </trk>
</gpx>