<?xml version="1.0" encoding="UTF-8"?>
<gpx xmlns="http://www.topografix.com/GPX/1/1" xmlns:xsi="http://www.w3.org/2001/XMLSchema-instance" xsi:schemaLocation="http://www.topografix.com/GPX/1/1 http://www.topografix.com/GPX/1/1/gpx.xsd" version="1.1" creator="gpx.py -- https://github.com/tkrajina/gpxpy">
  <trk>
    <trkseg>
      <trkpt lat="48.56949660802959" lon="-4.581730877114918">
      </trkpt>
      <trkpt lat="48.569545103553345" lon="-4.581757059023729">
      </trkpt>
      <trkpt lat="48.569593663182765" lon="-4.581782756582506">
      </trkpt>
      <trkpt lat="48.56964234822177" lon="-4.581807506609639">
      </trkpt>
      <trkpt lat="48.56969121449331" lon="-4.581830887335193">
      </trkpt>
      <trkpt lat="48.569740309899586" lon="-4.581852536834287">
      </trkpt>
      <trkpt lat="48.56978967232851" lon="-4.58187216884494">
      </trkpt>
      <trkpt lat="48.569839327997826" lon="-4.5818895852791">
      </trkpt>
      <trkpt lat="48.56988929030926" lon="-4.581904684880037">
      </trkpt>
      <trkpt lat="48.56993955926283" lon="-4.5819174676477505">
      </trkpt>
      <trkpt lat="48.56999012145678" lon="-4.58192803483897">
      </trkpt>
      <trkpt lat="48.570040950673395" lon="-4.58193658454175">
      </trkpt>
      <trkpt lat="48.570092009024734" lon="-4.581943403018068">
      </trkpt>
      <trkpt lat="48.5701432486086" lon="-4.5819488521928085">
      </trkpt>
      <trkpt lat="48.57019461360206" lon="-4.581953353835904">
      </trkpt>
      <trkpt lat="48.57024604270119" lon="-4.581957371128967">
      </trkpt>
      <trkpt lat="48.570297471800316" lon="-4.581961388422029">
      </trkpt>
      <trkpt lat="48.57034883679378" lon="-4.581965890065125">
      </trkpt>
      <trkpt lat="48.570400076377645" lon="-4.581971339239866">
      </trkpt>
      <trkpt lat="48.57045113472899" lon="-4.581978157716184">
      </trkpt>
      <trkpt lat="48.570501963945595" lon="-4.581986707418964">
      </trkpt>
      <trkpt lat="48.57055252613955" lon="-4.581997274610183">
      </trkpt>
      <trkpt lat="48.570602795093116" lon="-4.582010057377897">
      </trkpt>
      <trkpt lat="48.57065275740456" lon="-4.582025156978833">
      </trkpt>
      <trkpt lat="48.570702413073874" lon="-4.582042573412993">
      </trkpt>
      <trkpt lat="48.57075177550279" lon="-4.582062205423647">
      </trkpt>
      <trkpt lat="48.57080087090907" lon="-4.5820838549227405">
      </trkpt>
      <trkpt lat="48.57084973718061" lon="-4.582107235648295">
      </trkpt>
      <trkpt lat="48.57089842221962" lon="-4.582131985675427">
      </trkpt>
      <trkpt lat="48.57094698184903" lon="-4.582157683234205">
      </trkpt>
      <trkpt lat="48.57099547737279" lon="-4.582183865143016">
      </trkpt>
      <trkpt lat="48.57104397289655" lon="-4.582210047051826">
      </trkpt>
      <trkpt lat="48.57109253252596" lon="-4.582235744610604">
      </trkpt>
      <trkpt lat="48.57114121756497" lon="-4.582260494637737">
      </trkpt>
      <trkpt lat="48.57119008383651" lon="-4.5822838753632915">
      </trkpt>
      <trkpt lat="48.57123917924279" lon="-4.5823055248623845">
      </trkpt>
      <trkpt lat="48.571288541671706" lon="-4.582325156873038">
      </trkpt>
      <trkpt lat="48.57133819734102" lon="-4.582342573307198">
      </trkpt>
      <trkpt lat="48.571388159652464" lon="-4.582357672908135">
      </trkpt>
      <trkpt lat="48.57143842860603" lon="-4.582370455675848">
      </trkpt>
      <trkpt lat="48.571488990799985" lon="-4.582381022867068">
      </trkpt>
      <trkpt lat="48.57153982001659" lon="-4.582389572569848">
      </trkpt>
      <trkpt lat="48.57159087836793" lon="-4.582396391046166">
      </trkpt>
      <trkpt lat="48.5716421179518" lon="-4.582401840220906">
      </trkpt>
      <trkpt lat="48.571693482945264" lon="-4.582406341864002">
      </trkpt>
      <trkpt lat="48.57174491204439" lon="-4.582410359157064">
      </trkpt>
    </trkseg>
  </trk>
</gpx>