<?xml version="1.0" encoding="UTF-8"?>
<gpx xmlns="http://www.topografix.com/GPX/1/1" xmlns:xsi="http://www.w3.org/2001/XMLSchema-instance" xsi:schemaLocation="http://www.topografix.com/GPX/1/1 http://www.topografix.com/GPX/1/1/gpx.xsd" version="1.1" creator="gpx.py -- https://github.com/tkrajina/gpxpy">
  <trk>
    <trkseg>
      <trkpt lat="48.56320135678816" lon="-4.586487251409945">
      </trkpt>
      <trkpt lat="48.56323662275323" lon="-4.586449944172993">
      </trkpt>
      <trkpt lat="48.56327165758206" lon="-4.586412287666266">
      </trkpt>
      <trkpt lat="48.56330624024016" lon="-4.586373947884752">
      </trkpt>
      <trkpt lat="48.56334016945508" lon="-4.586334620685828">
      </trkpt>
      <trkpt lat="48.56337327251297" lon="-4.5862940450817495">
      </trkpt>
      <trkpt lat="48.563405412807015" lon="-4.586252014646067">
      </trkpt>
      <trkpt lat="48.563436495807785" lon="-4.5862083865354535">
      </trkpt>
      <trkpt lat="48.56346647319465" lon="-4.586163087732643">
      </trkpt>
      <trkpt lat="48.563495344967606" lon="-4.586116118237637">
      </trkpt>
      <trkpt lat="48.56352315944729" lon="-4.586067551067701">
      </trkpt>
      <trkpt lat="48.56355001116312" lon="-4.58601752906616">
      </trkpt>
      <trkpt lat="48.56357603672193" lon="-4.585966258659464">
      </trkpt>
      <trkpt lat="48.56360140883756" lon="-4.585914000835358">
      </trkpt>
      <trkpt lat="48.56362632878246" lon="-4.585861059736466">
      </trkpt>
      <trkpt lat="48.56365101759112" lon="-4.585807769367799">
      </trkpt>
      <trkpt lat="48.56367570639978" lon="-4.585754478999131">
      </trkpt>
      <trkpt lat="48.563700626344676" lon="-4.585701537900238">
      </trkpt>
      <trkpt lat="48.563725998460306" lon="-4.585649280076133">
      </trkpt>
      <trkpt lat="48.56375202401911" lon="-4.585598009669438">
      </trkpt>
      <trkpt lat="48.56377887573495" lon="-4.585547987667897">
      </trkpt>
      <trkpt lat="48.56380669021463" lon="-4.5854994204979596">
      </trkpt>
      <trkpt lat="48.56383556198759" lon="-4.585452451002953">
      </trkpt>
      <trkpt lat="48.563865539374454" lon="-4.585407152200144">
      </trkpt>
      <trkpt lat="48.563896622375225" lon="-4.58536352408953">
      </trkpt>
      <trkpt lat="48.56392876266927" lon="-4.585321493653848">
      </trkpt>
      <trkpt lat="48.56396186572716" lon="-4.585280918049769">
      </trkpt>
      <trkpt lat="48.56399579494208" lon="-4.585241590850845">
      </trkpt>
      <trkpt lat="48.56403037760018" lon="-4.585203251069331">
      </trkpt>
      <trkpt lat="48.56406541242901" lon="-4.5851655945626035">
      </trkpt>
      <trkpt lat="48.56410067839408" lon="-4.585128287325651">
      </trkpt>
      <trkpt lat="48.56413594435915" lon="-4.5850909800887">
      </trkpt>
      <trkpt lat="48.56417097918798" lon="-4.585053323581972">
      </trkpt>
      <trkpt lat="48.56420556184608" lon="-4.585014983800458">
      </trkpt>
      <trkpt lat="48.564239491060995" lon="-4.584975656601535">
      </trkpt>
      <trkpt lat="48.56427259411889" lon="-4.584935080997456">
      </trkpt>
      <trkpt lat="48.564304734412936" lon="-4.584893050561773">
      </trkpt>
      <trkpt lat="48.564335817413706" lon="-4.58484942245116">
      </trkpt>
      <trkpt lat="48.564365794800565" lon="-4.58480412364835">
      </trkpt>
      <trkpt lat="48.56439466657353" lon="-4.584757154153344">
      </trkpt>
      <trkpt lat="48.564422481053214" lon="-4.584708586983407">
      </trkpt>
      <trkpt lat="48.564449332769044" lon="-4.584658564981866">
      </trkpt>
      <trkpt lat="48.564475358327854" lon="-4.584607294575171">
      </trkpt>
      <trkpt lat="48.564500730443484" lon="-4.584555036751065">
      </trkpt>
      <trkpt lat="48.56452565038838" lon="-4.584502095652173">
      </trkpt>
      <trkpt lat="48.56455033919704" lon="-4.584448805283505">
      </trkpt>
    </trkseg>
  </trk>
</gpx>