<?xml version="1.0" encoding="UTF-8"?>
<gpx xmlns="http://www.topografix.com/GPX/1/1" xmlns:xsi="http://www.w3.org/2001/XMLSchema-instance" xsi:schemaLocation="http://www.topografix.com/GPX/1/1 http://www.topografix.com/GPX/1/1/gpx.xsd" version="1.1" creator="gpx.py -- https://github.com/tkrajina/gpxpy">
  <trk>
    <trkseg>
      <trkpt lat="48.567697964817754" lon="-4.583769323241358">
      </trkpt>
      <trkpt lat="48.56773798206754" lon="-4.583736702942081">
      </trkpt>
      <trkpt lat="48.56777785604296" lon="-4.583703793973761">
      </trkpt>
      <trkpt lat="48.56781744854519" lon="-4.5836703178936045">
      </trkpt>
      <trkpt lat="48.567856631346764" lon="-4.5836360163490335">
      </trkpt>
      <trkpt lat="48.56789529073404" lon="-4.58360066022996">
      </trkpt>
      <trkpt lat="48.567933331535606" lon="-4.583564057785123">
      </trkpt>
      <trkpt lat="48.567970680493744" lon="-4.583526061414973">
      </trkpt>
      <trkpt lat="48.568007288859654" lon="-4.583486572900459">
      </trkpt>
      <trkpt lat="48.56804313412036" lon="-4.58344554688249">
      </trkpt>
      <trkpt lat="48.56807822079629" lon="-4.583402992468799">
      </trkpt>
      <trkpt lat="48.568112580281095" lon="-4.583358972911301">
      </trkpt>
      <trkpt lat="48.56814626972956" lon="-4.583313603365362">
      </trkpt>
      <trkpt lat="48.568179370032816" lon="-4.583267046810357">
      </trkpt>
      <trkpt lat="48.568211982952775" lon="-4.583219508276054">
      </trkpt>
      <trkpt lat="48.568244227517134" lon="-4.5831712275793235">
      </trkpt>
      <trkpt lat="48.56827623580278" lon="-4.5831224708285125">
      </trkpt>
      <trkpt lat="48.568308148256875" lon="-4.583073520996421">
      </trkpt>
      <trkpt lat="48.568340108721486" lon="-4.583024667895846">
      </trkpt>
      <trkpt lat="48.56837225933786" lon="-4.582976197912829">
      </trkpt>
      <trkpt lat="48.56840473551104" lon="-4.582928383861273">
      </trkpt>
      <trkpt lat="48.568437661113045" lon="-4.5828814753183895">
      </trkpt>
      <trkpt lat="48.56847114409466" lon="-4.5828356897832885">
      </trkpt>
      <trkpt lat="48.56850527266122" lon="-4.582791204971972">
      </trkpt>
      <trkpt lat="48.568540112147886" lon="-4.582748152521653">
      </trkpt>
      <trkpt lat="48.56857570270513" lon="-4.58270661332744">
      </trkpt>
      <trkpt lat="48.568612057876365" lon="-4.582666614676595">
      </trkpt>
      <trkpt lat="48.56864916411817" lon="-4.582628129281857">
      </trkpt>
      <trkpt lat="48.56868698128008" lon="-4.582591076248115">
      </trkpt>
      <trkpt lat="48.56872544402694" lon="-4.582555323938159">
      </trkpt>
      <trkpt lat="48.56876446415341" lon="-4.582520694635986">
      </trkpt>
      <trkpt lat="48.5688039337087" lon="-4.582486970842483">
      </trkpt>
      <trkpt lat="48.5688437288208" lon="-4.582453902980443">
      </trkpt>
      <trkpt lat="48.56888371408466" lon="-4.582421218235959">
      </trkpt>
      <trkpt lat="48.568923747359044" lon="-4.582388630222995">
      </trkpt>
      <trkpt lat="48.56896368480187" lon="-4.5823558491287475">
      </trkpt>
      <trkpt lat="48.569003385965985" lon="-4.58232259198042">
      </trkpt>
      <trkpt lat="48.5690427187745" lon="-4.5822885926696655">
      </trkpt>
      <trkpt lat="48.56908156419971" lon="-4.582253611379612">
      </trkpt>
      <trkpt lat="48.56911982047973" lon="-4.582217443080495">
      </trkpt>
      <trkpt lat="48.56915740672339" lon="-4.582179924792935">
      </trkpt>
      <trkpt lat="48.569194265775934" lon="-4.582140941361568">
      </trkpt>
      <trkpt lat="48.5692303662437" lon="-4.58210042953448">
      </trkpt>
      <trkpt lat="48.56926570360627" lon="-4.582058380203936">
      </trkpt>
      <trkpt lat="48.569300300376604" lon="-4.5820148387290285">
      </trkpt>
      <trkpt lat="48.56933420530351" lon="-4.581969903328808">
      </trkpt>
      <trkpt lat="48.569367491644705" lon="-4.581923721602824">
      </trkpt>
      <trkpt lat="48.56940025457161" lon="-4.581876485302337">
      </trkpt>
      <trkpt lat="48.56943260779785" lon="-4.581828423537436">
      </trkpt>
      <trkpt lat="48.56946467955091" lon="-4.581779794660697">
      </trkpt>
      <trkpt lat="48.56949660802959" lon="-4.581730877114918">
      </trkpt>
    </trkseg>
  </trk>
</gpx>