<?xml version="1.0" encoding="UTF-8"?>
<gpx xmlns="http://www.topografix.com/GPX/1/1" xmlns:xsi="http://www.w3.org/2001/XMLSchema-instance" xsi:schemaLocation="http://www.topografix.com/GPX/1/1 http://www.topografix.com/GPX/1/1/gpx.xsd" version="1.1" creator="gpx.py -- https://github.com/tkrajina/gpxpy">
  <trk>
    <trkseg>
      <trkpt lat="48.56455033919704" lon="-4.584448805283505">
      </trkpt>
      <trkpt lat="48.564535560919715" lon="-4.584368770140553">
      </trkpt>
      <trkpt lat="48.56452071425437" lon="-4.584288781970816">
      </trkpt>
      <trkpt lat="48.56450573142" lon="-4.584208887330576">
      </trkpt>
      <trkpt lat="48.56449054584425" lon="-4.584129131945938">
      </trkpt>
      <trkpt lat="48.56447509275431" lon="-4.584049560306962">
      </trkpt>
      <trkpt lat="48.56445930975184" lon="-4.583970215272772">
      </trkpt>
      <trkpt lat="48.56444313736684" lon="-4.58389113769113">
      </trkpt>
      <trkpt lat="48.564426519585474" lon="-4.583812366035872">
      </trkpt>
      <trkpt lat="48.5644094043473" lon="-4.583733936065407">
      </trkpt>
      <trkpt lat="48.564391744007324" lon="-4.5836558805053285">
      </trkpt>
      <trkpt lat="48.56437349575892" lon="-4.5835782287579345">
      </trkpt>
      <trkpt lat="48.56435462201378" lon="-4.583501006641256">
      </trkpt>
      <trkpt lat="48.56433509073554" lon="-4.583424236159887">
      </trkpt>
      <trkpt lat="48.56431487572416" lon="-4.583347935309679">
      </trkpt>
      <trkpt lat="48.56429395684844" lon="-4.583272117918001">
      </trkpt>
      <trkpt lat="48.56427232022476" lon="-4.583196793521011">
      </trkpt>
      <trkpt lat="48.56424995834026" lon="-4.583121967279012">
      </trkpt>
      <trkpt lat="48.56422687011957" lon="-4.583047639930646">
      </trkpt>
      <trkpt lat="48.56420306093429" lon="-4.582973807786342">
      </trkpt>
      <trkpt lat="48.564178542555396" lon="-4.58290046276106">
      </trkpt>
      <trkpt lat="48.564153333048694" lon="-4.582827592446061">
      </trkpt>
      <trkpt lat="48.56412745661449" lon="-4.582755180219041">
      </trkpt>
      <trkpt lat="48.5641009433728" lon="-4.582683205391675">
      </trkpt>
      <trkpt lat="48.564073829095975" lon="-4.582611643393247">
      </trkpt>
      <trkpt lat="48.56404615489119" lon="-4.582540465988745">
      </trkpt>
      <trkpt lat="48.5640179668356" lon="-4.582469641529472">
      </trkpt>
      <trkpt lat="48.56398931556732" lon="-4.582399135233963">
      </trkpt>
      <trkpt lat="48.56396025583598" lon="-4.582328909496712">
      </trkpt>
      <trkpt lat="48.56393084601676" lon="-4.582258924221956">
      </trkpt>
      <trkpt lat="48.56390114759224" lon="-4.5821891371795695">
      </trkpt>
      <trkpt lat="48.563871224606686" lon="-4.582119504379904">
      </trkpt>
      <trkpt lat="48.56384114309758" lon="-4.58204998046424">
      </trkpt>
      <trkpt lat="48.56381097050946" lon="-4.581980519107398">
      </trkpt>
      <trkpt lat="48.5637807750953" lon="-4.581911073428919">
      </trkpt>
      <trkpt lat="48.56375062531069" lon="-4.581841596409185">
      </trkpt>
      <trkpt lat="48.56372058920619" lon="-4.581772041306763">
      </trkpt>
      <trkpt lat="48.563690733823336" lon="-4.581702362073289">
      </trkpt>
      <trkpt lat="48.563661124599555" lon="-4.581632513762193">
      </trkpt>
      <trkpt lat="48.563631824787365" lon="-4.581562452927652">
      </trkpt>
      <trkpt lat="48.56360289489292" lon="-4.581492138010215">
      </trkpt>
      <trkpt lat="48.563574392138946" lon="-4.581421529705688">
      </trkpt>
      <trkpt lat="48.56354636995686" lon="-4.5813505913140045">
      </trkpt>
      <trkpt lat="48.563518877512465" lon="-4.581279289064971">
      </trkpt>
      <trkpt lat="48.5634919592696" lon="-4.581207592418022">
      </trkpt>
      <trkpt lat="48.56346565459543" lon="-4.5811354743332915">
      </trkpt>
      <trkpt lat="48.56343999741105" lon="-4.581062911511628">
      </trkpt>
      <trkpt lat="48.5634150158904" lon="-4.5809898846013954">
      </trkpt>
      <trkpt lat="48.56339073221015" lon="-4.580916378370241">
      </trkpt>
      <trkpt lat="48.56336716235293" lon="-4.580842381840298">
      </trkpt>
      <trkpt lat="48.56334431596539" lon="-4.580767888385625">
      </trkpt>
      <trkpt lat="48.56332219627264" lon="-4.580692895791025">
      </trkpt>
      <trkpt lat="48.56330080004956" lon="-4.5806174062716964">
      </trkpt>
      <trkpt lat="48.56328011764951" lon="-4.580541426453578">
      </trkpt>
      <trkpt lat="48.56326013308987" lon="-4.580464967314539">
      </trkpt>
      <trkpt lat="48.563240824193954" lon="-4.580388044086931">
      </trkpt>
      <trkpt lat="48.563222162787824" lon="-4.580310676122388">
      </trkpt>
      <trkpt lat="48.563204114950395" lon="-4.580232886720066">
      </trkpt>
      <trkpt lat="48.56318664131449" lon="-4.580154702919826">
      </trkpt>
      <trkpt lat="48.563169697416285" lon="-4.580076155262238">
      </trkpt>
      <trkpt lat="48.56315323408996" lon="-4.579997277517491">
      </trkpt>
      <trkpt lat="48.56313719790411" lon="-4.579918106385657">
      </trkpt>
      <trkpt lat="48.56312153163601" lon="-4.5798386811709255">
      </trkpt>
      <trkpt lat="48.563106174779485" lon="-4.579759043432749">
      </trkpt>
      <trkpt lat="48.563091064082045" lon="-4.579679236616951">
      </trkpt>
      <trkpt lat="48.563076134106254" lon="-4.579599305670101">
      </trkpt>
      <trkpt lat="48.563061317810565" lon="-4.579519296640562">
      </trkpt>
      <trkpt lat="48.563046547144424" lon="-4.579439256269768">
      </trkpt>
      <trkpt lat="48.56303175365225" lon="-4.579359231577339">
      </trkpt>
      <trkpt lat="48.56301686908106" lon="-4.57927926944373">
      </trkpt>
      <trkpt lat="48.563001825986326" lon="-4.579199416194124">
      </trkpt>
      <trkpt lat="48.56298655833054" lon="-4.579119717187238">
      </trkpt>
      <trkpt lat="48.56297100206947" lon="-4.579040216412722">
      </trkpt>
      <trkpt lat="48.56295509572051" lon="-4.578960956100701">
      </trkpt>
      <trkpt lat="48.562938780908496" lon="-4.578881976346937">
      </trkpt>
      <trkpt lat="48.56292200288379" lon="-4.5788033147569385">
      </trkpt>
      <trkpt lat="48.56290471100828" lon="-4.578725006112168">
      </trkpt>
      <trkpt lat="48.562886859204816" lon="-4.578647082061322">
      </trkpt>
      <trkpt lat="48.562868406366206" lon="-4.5785695708394165">
      </trkpt>
      <trkpt lat="48.56284931672011" lon="-4.578492497017165">
      </trkpt>
      <trkpt lat="48.56282956014652" lon="-4.578415881282892">
      </trkpt>
      <trkpt lat="48.562809112445116" lon="-4.5783397402589">
      </trkpt>
      <trkpt lat="48.5627879555501" lon="-4.578264086353933">
      </trkpt>
      <trkpt lat="48.5627660776905" lon="-4.578188927653026">
      </trkpt>
      <trkpt lat="48.5627434734947" lon="-4.578114267845753">
      </trkpt>
      <trkpt lat="48.56272014403808" lon="-4.578040106193471">
      </trkpt>
      <trkpt lat="48.5626960968335" lon="-4.577966437535877">
      </trkpt>
      <trkpt lat="48.56267134576459" lon="-4.577893252336812">
      </trkpt>
      <trkpt lat="48.56264591096254" lon="-4.577820536768908">
      </trkpt>
      <trkpt lat="48.56261981862738" lon="-4.577748272836316">
      </trkpt>
      <trkpt lat="48.56259310079549" lon="-4.577676438534437">
      </trkpt>
      <trkpt lat="48.562565795055164" lon="-4.577605008045243">
      </trkpt>
      <trkpt lat="48.56253794421304" lon="-4.577533951966435">
      </trkpt>
      <trkpt lat="48.56250959591411" lon="-4.577463237572421">
      </trkpt>
      <trkpt lat="48.56248080221882" lon="-4.577392829104791">
      </trkpt>
      <trkpt lat="48.562451619140994" lon="-4.577322688089708">
      </trkpt>
      <trkpt lat="48.562422106150635" lon="-4.577252773679413">
      </trkpt>
      <trkpt lat="48.562392325646094" lon="-4.577183043014779">
      </trkpt>
      <trkpt lat="48.562362342400164" lon="-4.577113451605746">
      </trkpt>
      <trkpt lat="48.56233222298521" lon="-4.57704395372621">
      </trkpt>
      <trkpt lat="48.56230203518224" lon="-4.5769745028198905">
      </trkpt>
    </trkseg>
  </trk>
</gpx>