<?xml version="1.0" encoding="UTF-8"?>
<gpx xmlns="http://www.topografix.com/GPX/1/1" xmlns:xsi="http://www.w3.org/2001/XMLSchema-instance" xsi:schemaLocation="http://www.topografix.com/GPX/1/1 http://www.topografix.com/GPX/1/1/gpx.xsd" version="1.1" creator="gpx.py -- https://github.com/tkrajina/gpxpy">
  <trk>
    <trkseg>
      <trkpt lat="48.56949660802959" lon="-4.581730877114918">
      </trkpt>
      <trkpt lat="48.56952699471202" lon="-4.581644758204376">
      </trkpt>
      <trkpt lat="48.56955718678055" lon="-4.581558529013497">
      </trkpt>
      <trkpt lat="48.569586994413314" lon="-4.581472081977412">
      </trkpt>
      <trkpt lat="48.56961623725453" lon="-4.581385314895326">
      </trkpt>
      <trkpt lat="48.56964474885546" lon="-4.581298133447034">
      </trkpt>
      <trkpt lat="48.569672380772936" lon="-4.581210453515407">
      </trkpt>
      <trkpt lat="48.5696990062245" lon="-4.581122203257627">
      </trkpt>
      <trkpt lat="48.56972452321025" lon="-4.581033324874201">
      </trkpt>
      <trkpt lat="48.569748857024365" lon="-4.580943776032171">
      </trkpt>
      <trkpt lat="48.56977196209465" lon="-4.580853530907499">
      </trkpt>
      <trkpt lat="48.56979382310466" lon="-4.580762580820932">
      </trkpt>
      <trkpt lat="48.56981445537084" lon="-4.580670934451723">
      </trkpt>
      <trkpt lat="48.56983390446539" lon="-4.580578617623909">
      </trkpt>
      <trkpt lat="48.56985224509412" lon="-4.58048567267045">
      </trkpt>
      <trkpt lat="48.56986957925694" lon="-4.580392157390839">
      </trkpt>
      <trkpt lat="48.5698860337363" lon="-4.580298143627891">
      </trkpt>
      <trkpt lat="48.56990175697538" lon="-4.5802037154987385">
      </trkpt>
      <trkpt lat="48.569916915422915" lon="-4.580108967323584">
      </trkpt>
      <trkpt lat="48.56993168943469" lon="-4.580014001303224">
      </trkpt>
      <trkpt lat="48.56994626883255" lon="-4.579918925002526">
      </trkpt>
      <trkpt lat="48.569960848230416" lon="-4.579823848701829">
      </trkpt>
      <trkpt lat="48.56997562224218" lon="-4.5797288826814695">
      </trkpt>
      <trkpt lat="48.56999078068972" lon="-4.579634134506314">
      </trkpt>
      <trkpt lat="48.5700065039288" lon="-4.579539706377162">
      </trkpt>
      <trkpt lat="48.57002295840817" lon="-4.579445692614215">
      </trkpt>
      <trkpt lat="48.57004029257099" lon="-4.579352177334602">
      </trkpt>
      <trkpt lat="48.570058633199714" lon="-4.579259232381143">
      </trkpt>
      <trkpt lat="48.57007808229426" lon="-4.579166915553331">
      </trkpt>
      <trkpt lat="48.570098714560444" lon="-4.579075269184121">
      </trkpt>
      <trkpt lat="48.57012057557045" lon="-4.578984319097555">
      </trkpt>
      <trkpt lat="48.57014368064074" lon="-4.578894073972882">
      </trkpt>
      <trkpt lat="48.57016801445485" lon="-4.5788045251308525">
      </trkpt>
      <trkpt lat="48.5701935314406" lon="-4.578715646747426">
      </trkpt>
      <trkpt lat="48.57022015689217" lon="-4.5786273964896465">
      </trkpt>
      <trkpt lat="48.570247788809645" lon="-4.578539716558019">
      </trkpt>
      <trkpt lat="48.570276300410576" lon="-4.578452535109728">
      </trkpt>
      <trkpt lat="48.57030554325179" lon="-4.57836576802764">
      </trkpt>
      <trkpt lat="48.57033535088455" lon="-4.578279320991556">
      </trkpt>
      <trkpt lat="48.57036554295308" lon="-4.578193091800677">
      </trkpt>
      <trkpt lat="48.57039592963551" lon="-4.578106972890135">
      </trkpt>
      <trkpt lat="48.57042631631794" lon="-4.578020853979593">
      </trkpt>
      <trkpt lat="48.57045650838647" lon="-4.577934624788714">
      </trkpt>
      <trkpt lat="48.57048631601923" lon="-4.57784817775263">
      </trkpt>
      <trkpt lat="48.57051555886044" lon="-4.577761410670543">
      </trkpt>
      <trkpt lat="48.570544070461374" lon="-4.577674229222251">
      </trkpt>
      <trkpt lat="48.57057170237885" lon="-4.577586549290624">
      </trkpt>
      <trkpt lat="48.57059832783042" lon="-4.577498299032844">
      </trkpt>
      <trkpt lat="48.57062384481617" lon="-4.577409420649418">
      </trkpt>
      <trkpt lat="48.57064817863028" lon="-4.577319871807388">
      </trkpt>
      <trkpt lat="48.57067128370057" lon="-4.5772296266827155">
      </trkpt>
      <trkpt lat="48.57069314471058" lon="-4.5771386765961495">
      </trkpt>
      <trkpt lat="48.57071377697676" lon="-4.5770470302269395">
      </trkpt>
      <trkpt lat="48.570733226071305" lon="-4.576954713399127">
      </trkpt>
      <trkpt lat="48.57075156670003" lon="-4.576861768445667">
      </trkpt>
      <trkpt lat="48.57076890086286" lon="-4.576768253166056">
      </trkpt>
      <trkpt lat="48.570785355342224" lon="-4.576674239403108">
      </trkpt>
      <trkpt lat="48.570801078581304" lon="-4.576579811273956">
      </trkpt>
      <trkpt lat="48.570816237028836" lon="-4.576485063098801">
      </trkpt>
      <trkpt lat="48.5708310110406" lon="-4.57639009707844">
      </trkpt>
      <trkpt lat="48.570845590438466" lon="-4.576295020777744">
      </trkpt>
      <trkpt lat="48.5708310110406" lon="-4.57639009707844">
      </trkpt>
      <trkpt lat="48.570816237028836" lon="-4.576485063098801">
      </trkpt>
      <trkpt lat="48.570801078581304" lon="-4.576579811273956">
      </trkpt>
      <trkpt lat="48.570785355342224" lon="-4.576674239403108">
      </trkpt>
      <trkpt lat="48.57076890086286" lon="-4.576768253166056">
      </trkpt>
      <trkpt lat="48.57075156670003" lon="-4.576861768445667">
      </trkpt>
      <trkpt lat="48.570733226071305" lon="-4.576954713399127">
      </trkpt>
      <trkpt lat="48.57071377697676" lon="-4.5770470302269395">
      </trkpt>
      <trkpt lat="48.57069314471058" lon="-4.5771386765961495">
      </trkpt>
      <trkpt lat="48.57067128370057" lon="-4.5772296266827155">
      </trkpt>
      <trkpt lat="48.57064817863028" lon="-4.577319871807388">
      </trkpt>
      <trkpt lat="48.57062384481617" lon="-4.577409420649418">
      </trkpt>
      <trkpt lat="48.57059832783042" lon="-4.577498299032844">
      </trkpt>
      <trkpt lat="48.57057170237885" lon="-4.577586549290624">
      </trkpt>
      <trkpt lat="48.570544070461374" lon="-4.577674229222251">
      </trkpt>
      <trkpt lat="48.57051555886044" lon="-4.577761410670543">
      </trkpt>
      <trkpt lat="48.57048631601923" lon="-4.57784817775263">
      </trkpt>
      <trkpt lat="48.57045650838647" lon="-4.577934624788714">
      </trkpt>
      <trkpt lat="48.57042631631794" lon="-4.578020853979593">
      </trkpt>
      <trkpt lat="48.57039592963551" lon="-4.578106972890135">
      </trkpt>
      <trkpt lat="48.57036554295308" lon="-4.578193091800677">
      </trkpt>
      <trkpt lat="48.57033535088455" lon="-4.578279320991556">
      </trkpt>
      <trkpt lat="48.57030554325179" lon="-4.57836576802764">
      </trkpt>
      <trkpt lat="48.570276300410576" lon="-4.578452535109728">
      </trkpt>
      <trkpt lat="48.570247788809645" lon="-4.578539716558019">
      </trkpt>
      <trkpt lat="48.57022015689217" lon="-4.5786273964896465">
      </trkpt>
      <trkpt lat="48.5701935314406" lon="-4.578715646747426">
      </trkpt>
      <trkpt lat="48.57016801445485" lon="-4.5788045251308525">
      </trkpt>
      <trkpt lat="48.57014368064074" lon="-4.578894073972882">
      </trkpt>
      <trkpt lat="48.57012057557045" lon="-4.578984319097555">
      </trkpt>
      <trkpt lat="48.570098714560444" lon="-4.579075269184121">
      </trkpt>
      <trkpt lat="48.57007808229426" lon="-4.579166915553331">
      </trkpt>
      <trkpt lat="48.570058633199714" lon="-4.579259232381143">
      </trkpt>
      <trkpt lat="48.57004029257099" lon="-4.579352177334602">
      </trkpt>
      <trkpt lat="48.57002295840817" lon="-4.579445692614215">
      </trkpt>
      <trkpt lat="48.5700065039288" lon="-4.579539706377162">
      </trkpt>
      <trkpt lat="48.56999078068972" lon="-4.579634134506314">
      </trkpt>
      <trkpt lat="48.56997562224218" lon="-4.5797288826814695">
      </trkpt>
      <trkpt lat="48.569960848230416" lon="-4.579823848701829">
      </trkpt>
      <trkpt lat="48.56994626883255" lon="-4.579918925002526">
      </trkpt>
      <trkpt lat="48.56993168943469" lon="-4.580014001303224">
      </trkpt>
      <trkpt lat="48.569916915422915" lon="-4.580108967323584">
      </trkpt>
      <trkpt lat="48.56990175697538" lon="-4.5802037154987385">
      </trkpt>
      <trkpt lat="48.5698860337363" lon="-4.580298143627891">
      </trkpt>
      <trkpt lat="48.56986957925694" lon="-4.580392157390839">
      </trkpt>
      <trkpt lat="48.56985224509412" lon="-4.58048567267045">
      </trkpt>
      <trkpt lat="48.56983390446539" lon="-4.580578617623909">
      </trkpt>
      <trkpt lat="48.56981445537084" lon="-4.580670934451723">
      </trkpt>
      <trkpt lat="48.56979382310466" lon="-4.580762580820932">
      </trkpt>
      <trkpt lat="48.56977196209465" lon="-4.580853530907499">
      </trkpt>
      <trkpt lat="48.569748857024365" lon="-4.580943776032171">
      </trkpt>
      <trkpt lat="48.56972452321025" lon="-4.581033324874201">
      </trkpt>
      <trkpt lat="48.5696990062245" lon="-4.581122203257627">
      </trkpt>
      <trkpt lat="48.569672380772936" lon="-4.581210453515407">
      </trkpt>
      <trkpt lat="48.56964474885546" lon="-4.581298133447034">
      </trkpt>
      <trkpt lat="48.56961623725453" lon="-4.581385314895326">
      </trkpt>
      <trkpt lat="48.569586994413314" lon="-4.581472081977412">
      </trkpt>
      <trkpt lat="48.56955718678055" lon="-4.581558529013497">
      </trkpt>
      <trkpt lat="48.56952699471202" lon="-4.581644758204376">
      </trkpt>
      <trkpt lat="48.56949660802959" lon="-4.581730877114918">
      </trkpt>
    </trkseg>
  </trk>
</gpx>