<?xml version="1.0" encoding="UTF-8"?>
<gpx xmlns="http://www.topografix.com/GPX/1/1" xmlns:xsi="http://www.w3.org/2001/XMLSchema-instance" xsi:schemaLocation="http://www.topografix.com/GPX/1/1 http://www.topografix.com/GPX/1/1/gpx.xsd" version="1.1" creator="gpx.py -- https://github.com/tkrajina/gpxpy">
  <trk>
    <trkseg>
      <trkpt lat="48.565" lon="-4.596">
      </trkpt>
      <trkpt lat="48.564988149975214" lon="-4.595890790610618">
      </trkpt>
      <trkpt lat="48.56497621082277" lon="-4.595781619701445">
      </trkpt>
      <trkpt lat="48.56496409439149" lon="-4.5956725253310955">
      </trkpt>
      <trkpt lat="48.564951714472535" lon="-4.595563544719607">
      </trkpt>
      <trkpt lat="48.56493898774385" lon="-4.595454713840649">
      </trkpt>
      <trkpt lat="48.56492583468314" lon="-4.595346067027394">
      </trkpt>
      <trkpt lat="48.56491218043906" lon="-4.595237636596349">
      </trkpt>
      <trkpt lat="48.56489795565136" lon="-4.595129452493294">
      </trkpt>
      <trkpt lat="48.56488309721077" lon="-4.595021541965188">
      </trkpt>
      <trkpt lat="48.56486754895046" lon="-4.5949139292616445">
      </trkpt>
      <trkpt lat="48.56485126226141" lon="-4.59480663536925">
      </trkpt>
      <trkpt lat="48.56483419662498" lon="-4.594699677781628">
      </trkpt>
      <trkpt lat="48.56481632005683" lon="-4.594593070307776">
      </trkpt>
      <trkpt lat="48.564797609457365" lon="-4.594486822920775">
      </trkpt>
      <trkpt lat="48.564778050864824" lon="-4.594380941648517">
      </trkpt>
      <trkpt lat="48.56475763960822" lon="-4.594275428507663">
      </trkpt>
      <trkpt lat="48.564736380358525" lon="-4.594170281481552">
      </trkpt>
      <trkpt lat="48.56471428707752" lon="-4.59406549454229">
      </trkpt>
      <trkpt lat="48.5646913828648" lon="-4.5939610577168">
      </trkpt>
      <trkpt lat="48.5646676997047" lon="-4.593856957196083">
      </trkpt>
      <trkpt lat="48.56464327811586" lon="-4.593753175486515">
      </trkpt>
      <trkpt lat="48.5646181667073" lon="-4.593649691601508">
      </trkpt>
      <trkpt lat="48.56459242164584" lon="-4.59354648129145">
      </trkpt>
      <trkpt lat="48.56456610604077" lon="-4.593443517309383">
      </trkpt>
      <trkpt lat="48.56453928925233" lon="-4.593340769709526">
      </trkpt>
      <trkpt lat="48.56451204613186" lon="-4.5932382061753705">
      </trkpt>
      <trkpt lat="48.56448445620167" lon="-4.593135792373748">
      </trkpt>
      <trkpt lat="48.56445660278379" lon="-4.593033492330985">
      </trkpt>
      <trkpt lat="48.56442857208709" lon="-4.592931268827045">
      </trkpt>
      <trkpt lat="48.56440045226272" lon="-4.5928290838033154">
      </trkpt>
      <trkpt lat="48.564372332438346" lon="-4.592726898779585">
      </trkpt>
      <trkpt lat="48.56434430174164" lon="-4.592624675275645">
      </trkpt>
      <trkpt lat="48.564316448323765" lon="-4.592522375232883">
      </trkpt>
      <trkpt lat="48.564288858393574" lon="-4.5924199614312595">
      </trkpt>
      <trkpt lat="48.564261615273104" lon="-4.592317397897105">
      </trkpt>
      <trkpt lat="48.56423479848467" lon="-4.592214650297247">
      </trkpt>
      <trkpt lat="48.56420848287959" lon="-4.59211168631518">
      </trkpt>
      <trkpt lat="48.56418273781814" lon="-4.592008476005122">
      </trkpt>
      <trkpt lat="48.56415762640958" lon="-4.591904992120116">
      </trkpt>
      <trkpt lat="48.564133204820735" lon="-4.591801210410547">
      </trkpt>
      <trkpt lat="48.56410952166063" lon="-4.59169710988983">
      </trkpt>
      <trkpt lat="48.56408661744791" lon="-4.59159267306434">
      </trkpt>
      <trkpt lat="48.564064524166916" lon="-4.591487886125079">
      </trkpt>
      <trkpt lat="48.564043264917224" lon="-4.591382739098967">
      </trkpt>
      <trkpt lat="48.56402285366062" lon="-4.591277225958113">
      </trkpt>
      <trkpt lat="48.56400329506807" lon="-4.591171344685855">
      </trkpt>
      <trkpt lat="48.56398458446861" lon="-4.591065097298854">
      </trkpt>
      <trkpt lat="48.56396670790046" lon="-4.590958489825003">
      </trkpt>
      <trkpt lat="48.56394964226403" lon="-4.59085153223738">
      </trkpt>
      <trkpt lat="48.563933355574974" lon="-4.5907442383449855">
      </trkpt>
      <trkpt lat="48.56391780731467" lon="-4.590636625641442">
      </trkpt>
      <trkpt lat="48.56390294887408" lon="-4.590528715113336">
      </trkpt>
      <trkpt lat="48.563888724086375" lon="-4.590420531010281">
      </trkpt>
      <trkpt lat="48.563875069842304" lon="-4.590312100579236">
      </trkpt>
      <trkpt lat="48.56386191678158" lon="-4.590203453765981">
      </trkpt>
      <trkpt lat="48.563849190052906" lon="-4.590094622887024">
      </trkpt>
      <trkpt lat="48.56383681013394" lon="-4.5899856422755345">
      </trkpt>
      <trkpt lat="48.56382469370267" lon="-4.589876547905185">
      </trkpt>
      <trkpt lat="48.56381275455022" lon="-4.589767376996012">
      </trkpt>
      <trkpt lat="48.563800904525436" lon="-4.58965816760663">
      </trkpt>
      <trkpt lat="48.56378905450066" lon="-4.5895489582172475">
      </trkpt>
      <trkpt lat="48.56377711534821" lon="-4.589439787308075">
      </trkpt>
      <trkpt lat="48.56376499891694" lon="-4.589330692937726">
      </trkpt>
      <trkpt lat="48.563752618997974" lon="-4.589221712326236">
      </trkpt>
      <trkpt lat="48.56373989226929" lon="-4.589112881447279">
      </trkpt>
      <trkpt lat="48.563726739208576" lon="-4.589004234634023">
      </trkpt>
      <trkpt lat="48.5637130849645" lon="-4.588895804202979">
      </trkpt>
      <trkpt lat="48.5636988601768" lon="-4.588787620099924">
      </trkpt>
      <trkpt lat="48.56368400173621" lon="-4.588679709571818">
      </trkpt>
      <trkpt lat="48.563668453475906" lon="-4.588572096868275">
      </trkpt>
      <trkpt lat="48.56365216678685" lon="-4.58846480297588">
      </trkpt>
      <trkpt lat="48.56363510115042" lon="-4.588357845388257">
      </trkpt>
      <trkpt lat="48.563617224582266" lon="-4.588251237914406">
      </trkpt>
      <trkpt lat="48.56359851398281" lon="-4.588144990527406">
      </trkpt>
      <trkpt lat="48.56357895539026" lon="-4.588039109255147">
      </trkpt>
      <trkpt lat="48.563558544133656" lon="-4.5879335961142935">
      </trkpt>
      <trkpt lat="48.563537284883964" lon="-4.587828449088182">
      </trkpt>
      <trkpt lat="48.56351519160296" lon="-4.58772366214892">
      </trkpt>
      <trkpt lat="48.56349228739025" lon="-4.58761922532343">
      </trkpt>
      <trkpt lat="48.563468604230145" lon="-4.587515124802714">
      </trkpt>
      <trkpt lat="48.5634441826413" lon="-4.5874113430931445">
      </trkpt>
      <trkpt lat="48.56341907123274" lon="-4.587307859208138">
      </trkpt>
      <trkpt lat="48.56339332617129" lon="-4.587204648898081">
      </trkpt>
      <trkpt lat="48.56336701056621" lon="-4.5871016849160124">
      </trkpt>
      <trkpt lat="48.56334019377777" lon="-4.586998937316156">
      </trkpt>
      <trkpt lat="48.5633129506573" lon="-4.586896373782001">
      </trkpt>
      <trkpt lat="48.563285360727114" lon="-4.586793959980378">
      </trkpt>
      <trkpt lat="48.56325750730923" lon="-4.586691659937615">
      </trkpt>
      <trkpt lat="48.56322947661253" lon="-4.586589436433675">
      </trkpt>
      <trkpt lat="48.56320135678816" lon="-4.586487251409945">
      </trkpt>
    </trkseg>
  </trk>
</gpx>